[
    {
        "Altitude(m)": 553533.1926782514,
        "Argument of Periapsis(deg)": 0.019868973332140504,
        "Eccentricity": 0.0,
        "Inclination(deg)": 53.0,
        "Latitude(deg)": 15.387738612046398,
        "Longitude(deg)": -40.477381310008354,
        "Mean Anomaly(deg)": 19.365778602732746,
        "RAAN(deg)": 49.97043010558406,
        "Satellite Name": "Starlink Shell 1 241",
        "Satellite Number": 241,
        "Semi-Major Axis(m)": 6931778.249405717,
        "Time(s)": 570
    },
    {
        "Altitude(m)": 553552.3840011476,
        "Argument of Periapsis(deg)": 0.02021755181165174,
        "Eccentricity": 0.0,
        "Inclination(deg)": 53.0,
        "Latitude(deg)": 15.880301359744736,
        "Longitude(deg)": -40.11257497919649,
        "Mean Anomaly(deg)": 19.992609806289412,
        "RAAN(deg)": 49.96991133550658,
        "Satellite Name": "Starlink Shell 1 241",
        "Satellite Number": 241,
        "Semi-Major Axis(m)": 6931778.249405717,
        "Time(s)": 580
    },
    {
        "Altitude(m)": 553573.965570261,
        "Argument of Periapsis(deg)": 0.020566130291162974,
        "Eccentricity": 0.0,
        "Inclination(deg)": 53.0,
        "Latitude(deg)": 16.372079438755428,
        "Longitude(deg)": -39.74579018075838,
        "Mean Anomaly(deg)": 20.61944100984617,
        "RAAN(deg)": 49.969392565429104,
        "Satellite Name": "Starlink Shell 1 241",
        "Satellite Number": 241,
        "Semi-Major Axis(m)": 6931778.249405717,
        "Time(s)": 590
    },
    {
        "Altitude(m)": 553597.9047374702,
        "Argument of Periapsis(deg)": 0.020914708770674213,
        "Eccentricity": 0.0,
        "Inclination(deg)": 53.0,
        "Latitude(deg)": 16.863043232092117,
        "Longitude(deg)": -39.376955794697864,
        "Mean Anomaly(deg)": 21.246272213402886,
        "RAAN(deg)": 49.968873795351634,
        "Satellite Name": "Starlink Shell 1 241",
        "Satellite Number": 241,
        "Semi-Major Axis(m)": 6931778.249405717,
        "Time(s)": 600
    },
    {
        "Altitude(m)": 553624.1678080942,
        "Argument of Periapsis(deg)": 0.021263287250185448,
        "Eccentricity": 0.0,
        "Inclination(deg)": 53.0,
        "Latitude(deg)": 17.35316266766128,
        "Longitude(deg)": -39.00599983841357,
        "Mean Anomaly(deg)": 21.873103416959534,
        "RAAN(deg)": 49.968355025274164,
        "Satellite Name": "Starlink Shell 1 241",
        "Satellite Number": 241,
        "Semi-Major Axis(m)": 6931778.249405717,
        "Time(s)": 610
    },
    {
        "Altitude(m)": 553652.7200602145,
        "Argument of Periapsis(deg)": 0.021611865729696686,
        "Eccentricity": 0.0,
        "Inclination(deg)": 53.0,
        "Latitude(deg)": 17.84240720003238,
        "Longitude(deg)": -38.63284893571268,
        "Mean Anomaly(deg)": 22.499934620516346,
        "RAAN(deg)": 49.96783625519669,
        "Satellite Name": "Starlink Shell 1 241",
        "Satellite Number": 241,
        "Semi-Major Axis(m)": 6931778.249405717,
        "Time(s)": 620
    },
    {
        "Altitude(m)": 553683.5257645173,
        "Argument of Periapsis(deg)": 0.02196044420920792,
        "Eccentricity": 0.0,
        "Inclination(deg)": 53.0,
        "Latitude(deg)": 18.33074579179854,
        "Longitude(deg)": -38.257429466945844,
        "Mean Anomaly(deg)": 23.12676582407301,
        "RAAN(deg)": 49.96731748511921,
        "Satellite Name": "Starlink Shell 1 241",
        "Satellite Number": 241,
        "Semi-Major Axis(m)": 6931778.249405717,
        "Time(s)": 630
    },
    {
        "Altitude(m)": 553716.5482045911,
        "Argument of Periapsis(deg)": 0.02230902268871916,
        "Eccentricity": 0.0,
        "Inclination(deg)": 53.0,
        "Latitude(deg)": 18.818146894523277,
        "Longitude(deg)": -37.8796661978765,
        "Mean Anomaly(deg)": 23.75359702762971,
        "RAAN(deg)": 49.96679871504175,
        "Satellite Name": "Starlink Shell 1 241",
        "Satellite Number": 241,
        "Semi-Major Axis(m)": 6931778.249405717,
        "Time(s)": 640
    },
    {
        "Altitude(m)": 553751.7496977138,
        "Argument of Periapsis(deg)": 0.022657601168230398,
        "Eccentricity": 0.0,
        "Inclination(deg)": 53.0,
        "Latitude(deg)": 19.304578429252125,
        "Longitude(deg)": -37.49948343023937,
        "Mean Anomaly(deg)": 24.38042823118648,
        "RAAN(deg)": 49.96627994496427,
        "Satellite Name": "Starlink Shell 1 241",
        "Satellite Number": 241,
        "Semi-Major Axis(m)": 6931778.249405717,
        "Time(s)": 650
    },
    {
        "Altitude(m)": 553789.0916160694,
        "Argument of Periapsis(deg)": 0.023006179647741636,
        "Eccentricity": 0.0,
        "Inclination(deg)": 53.0,
        "Latitude(deg)": 19.790007766585465,
        "Longitude(deg)": -37.11680447160933,
        "Mean Anomaly(deg)": 25.007259434743137,
        "RAAN(deg)": 49.965761174886794,
        "Satellite Name": "Starlink Shell 1 241",
        "Satellite Number": 241,
        "Semi-Major Axis(m)": 6931778.249405717,
        "Time(s)": 660
    },
    {
        "Altitude(m)": 553828.534408445,
        "Argument of Periapsis(deg)": 0.023354758127252868,
        "Eccentricity": 0.0,
        "Inclination(deg)": 53.0,
        "Latitude(deg)": 20.274401706298686,
        "Longitude(deg)": -36.73155110560346,
        "Mean Anomaly(deg)": 25.634090638299895,
        "RAAN(deg)": 49.96524240480932,
        "Satellite Name": "Starlink Shell 1 241",
        "Satellite Number": 241,
        "Semi-Major Axis(m)": 6931778.249405717,
        "Time(s)": 670
    },
    {
        "Altitude(m)": 553870.0376223263,
        "Argument of Periapsis(deg)": 0.023703336606764106,
        "Eccentricity": 0.0,
        "Inclination(deg)": 53.0,
        "Latitude(deg)": 20.757726456495984,
        "Longitude(deg)": -36.343644575347255,
        "Mean Anomaly(deg)": 26.260921841856607,
        "RAAN(deg)": 49.964723634731854,
        "Satellite Name": "Starlink Shell 1 241",
        "Satellite Number": 241,
        "Semi-Major Axis(m)": 6931778.249405717,
        "Time(s)": 680
    },
    {
        "Altitude(m)": 553913.5599264236,
        "Argument of Periapsis(deg)": 0.024051915086275345,
        "Eccentricity": 0.0,
        "Inclination(deg)": 53.0,
        "Latitude(deg)": 21.23994761229314,
        "Longitude(deg)": -35.95300505452123,
        "Mean Anomaly(deg)": 26.88775304541326,
        "RAAN(deg)": 49.96420486465438,
        "Satellite Name": "Starlink Shell 1 241",
        "Satellite Number": 241,
        "Semi-Major Axis(m)": 6931778.249405717,
        "Time(s)": 690
    },
    {
        "Altitude(m)": 553959.0591336266,
        "Argument of Periapsis(deg)": 0.024400493565786583,
        "Eccentricity": 0.0,
        "Inclination(deg)": 53.0,
        "Latitude(deg)": 21.721030134016477,
        "Longitude(deg)": -35.559551118930294,
        "Mean Anomaly(deg)": 27.51458424897003,
        "RAAN(deg)": 49.9636860945769,
        "Satellite Name": "Starlink Shell 1 241",
        "Satellite Number": 241,
        "Semi-Major Axis(m)": 6931778.249405717,
        "Time(s)": 700
    },
    {
        "Altitude(m)": 554006.4922243282,
        "Argument of Periapsis(deg)": 0.024749072045297815,
        "Eccentricity": 0.0,
        "Inclination(deg)": 53.0,
        "Latitude(deg)": 22.200938324906637,
        "Longitude(deg)": -35.163200731544364,
        "Mean Anomaly(deg)": 28.141415452526736,
        "RAAN(deg)": 49.96316732449944,
        "Satellite Name": "Starlink Shell 1 241",
        "Satellite Number": 241,
        "Semi-Major Axis(m)": 6931778.249405717,
        "Time(s)": 710
    },
    {
        "Altitude(m)": 554055.8153701449,
        "Argument of Periapsis(deg)": 0.025097650524809053,
        "Eccentricity": 0.0,
        "Inclination(deg)": 53.0,
        "Latitude(deg)": 22.6796358083242,
        "Longitude(deg)": -34.76387071534419,
        "Mean Anomaly(deg)": 28.76824665608345,
        "RAAN(deg)": 49.96264855442196,
        "Satellite Name": "Starlink Shell 1 241",
        "Satellite Number": 241,
        "Semi-Major Axis(m)": 6931778.249405717,
        "Time(s)": 720
    },
    {
        "Altitude(m)": 554106.9839579929,
        "Argument of Periapsis(deg)": 0.02544622900432029,
        "Eccentricity": 0.0,
        "Inclination(deg)": 53.0,
        "Latitude(deg)": 23.157085504445917,
        "Longitude(deg)": -34.36147622693706,
        "Mean Anomaly(deg)": 29.395077859640157,
        "RAAN(deg)": 49.962129784344484,
        "Satellite Name": "Starlink Shell 1 241",
        "Satellite Number": 241,
        "Semi-Major Axis(m)": 6931778.249405717,
        "Time(s)": 730
    },
    {
        "Altitude(m)": 554159.9526145605,
        "Argument of Periapsis(deg)": 0.02579480748383153,
        "Eccentricity": 0.0,
        "Inclination(deg)": 53.0,
        "Latitude(deg)": 23.633249606443524,
        "Longitude(deg)": -33.95593174390919,
        "Mean Anomaly(deg)": 30.02190906319686,
        "RAAN(deg)": 49.96161101426701,
        "Satellite Name": "Starlink Shell 1 241",
        "Satellite Number": 241,
        "Semi-Major Axis(m)": 6931778.249405717,
        "Time(s)": 740
    },
    {
        "Altitude(m)": 554214.6752310675,
        "Argument of Periapsis(deg)": 0.026143385963342765,
        "Eccentricity": 0.0,
        "Inclination(deg)": 53.0,
        "Latitude(deg)": 24.108089556143643,
        "Longitude(deg)": -33.547150540275005,
        "Mean Anomaly(deg)": 30.648740266753624,
        "RAAN(deg)": 49.961092244189544,
        "Satellite Name": "Starlink Shell 1 241",
        "Satellite Number": 241,
        "Semi-Major Axis(m)": 6931778.249405717,
        "Time(s)": 750
    }
]